[{"OBJECT_NAME":"STARLINK-3641","OBJECT_ID":"2022-017W","EPOCH":"2026-03-09T23:26:44.761344","MEAN_MOTION":15.08815298,"ECCENTRICITY":0.00021368,"INCLINATION":53.2196,"RA_OF_ASC_NODE":347.8328,"ARG_OF_PERICENTER":45.198,"MEAN_ANOMALY":314.9186,"EPHEMERIS_TYPE":0,"CLASSIFICATION_TYPE":"U","NORAD_CAT_ID":51788,"ELEMENT_SET_NO":999,"REV_AT_EPOCH":22396,"BSTAR":6.3918065e-5,"MEAN_MOTION_DOT":7.29e-6,"MEAN_MOTION_DDOT":0},{"OBJECT_NAME":"CZ-2D DEB","OBJECT_ID":"2010-027D","EPOCH":"2026-03-07T13:36:06.977952","MEAN_MOTION":15.23568143,"ECCENTRICITY":0.0065729,"INCLINATION":97.6621,"RA_OF_ASC_NODE":290.9585,"ARG_OF_PERICENTER":344.0278,"MEAN_ANOMALY":15.8885,"EPHEMERIS_TYPE":0,"CLASSIFICATION_TYPE":"U","NORAD_CAT_ID":38299,"ELEMENT_SET_NO":999,"REV_AT_EPOCH":83553,"BSTAR":0.0024156,"MEAN_MOTION_DOT":0.00061723,"MEAN_MOTION_DDOT":0}]
